ONEWEB-0340             
1 49206U 21083W   25251.25291129  .00000139  00000+0  31959-3 0  9993
2 49206  87.9180  31.4349 0001809  96.0713 264.0625 13.18688545192819
ONEWEB-0341             
1 49207U 21083X   25251.10776494  .00000161  00000+0  37660-3 0  9991
2 49207  87.9181  31.4760 0001839 114.1981 245.9344 13.18686909192818
ONEWEB-0342             
1 49208U 21083Y   25251.23257441  .00000128  00000+0  28309-3 0  9995
2 49208  87.9278 330.6416 0001812  98.5717 261.5621 13.20771521199560
ONEWEB-0343             
1 49209U 21083Z   25251.10364918  .00000083  00000+0  17762-3 0  9991
2 49209  87.9180  31.4627 0001492 114.9579 245.1708 13.18686880192866
ONEWEB-0344             
1 49210U 21083AA  25251.26275223  .00000505  00000+0  13485-2 0  9996
2 49210  87.9016  16.2807 0001888 111.7553 248.3777 13.13470461193888
ONEWEB-0345             
1 49211U 21083AB  25251.25429067  .00000365  00000+0  96431-3 0  9990
2 49211  87.9022  16.2355 0001830 112.2329 247.8995 13.13469928193891
ONEWEB-0346             
1 49212U 21083AC  25251.11272611  .00000020  00000+0  17586-4 0  9990
2 49212  87.9181  31.4834 0002349  91.0980 269.0421 13.18685990192806
ONEWEB-0348             
1 49213U 21083AD  25251.22311177  .00000064  00000+0  12579-3 0  9998
2 49213  87.9277 330.6553 0002461 106.8624 253.2780 13.20771327199599
